404P/Bressi,e,9.8028,260.0382,169.3228,4.726291,0.0959231,0.12559885,21.4203,06/14.0/2024,2000,g 10.0,4.0
# From MPEC 2021-L04
405P/Lemmon,e,9.3758,112.1902,3.2957,3.604680,0.1440138,0.68990415,182.4832,06/14.0/2024,2000,g 17.5,4.0
# From MPEC 2021-F20
406P/Gibbs,e,1.2108,352.4112,11.5473,3.578459,0.1455995,0.54148628,199.0543,06/14.0/2024,2000,g 17.0,4.0
# From MPEC 2022-YN2
407P/PANSTARRS-Fuls,e,4.8762,80.2438,93.4381,3.486104,0.1514236,0.37679932,243.1239,06/14.0/2024,2000,g 14.0,4.0
# From MPEC 2024-L77
408P/Novichonok-Gerke,e,19.3560,189.4449,226.5969,4.743731,0.0953946,0.26866718,58.8799,06/14.0/2024,2000,g 11.0,4.0
# From MPEC 2022-ED3
409P/LONEOS-Hill,e,17.1359,143.6469,15.0530,6.033856,0.0664985,0.70989519,81.9831,06/14.0/2024,2000,g 14.0,4.0
# From MPEC 2022-M21
410P/NEAT-LINEAR,e,9.3888,139.9651,313.1704,6.648670,0.0574913,0.51166905,62.4180,06/14.0/2024,2000,g 12.5,4.0
# From MPEC 2021-J28
411P/Christensen,e,12.3893,77.6532,46.5526,5.811282,0.0703552,0.58145069,86.9664,06/14.0/2024,2000,g 13.5,4.0
# From MPEC 2021-F20
412P/WISE,e,8.9310,0.8457,155.8930,3.110604,0.1796541,0.47895594,231.3979,06/14.0/2024,2000,g 17.0,4.0
# From MPEC 2022-OB6
413P/Larson,e,15.9750,39.2314,186.5455,3.732833,0.1366615,0.41925919,145.1068,06/14.0/2024,2000,g 14.0,4.0
# From MPEC 2024-JU4
414P/STEREO,e,23.4075,257.8178,210.6907,2.792753,0.2111812,0.81214480,260.8806,06/14.0/2024,2000,g 19.0,4.0
# From MPEC 2022-J42
415P/Tenagra,e,31.7987,160.2676,345.8755,4.109522,0.1183088,0.19514017,143.9196,06/14.0/2024,2000,g 12.0,4.0
# From MPEC 2021-L04
416P/Scotti,e,3.3620,355.7601,134.4120,4.007588,0.1228512,0.45504849,149.1623,06/14.0/2024,2000,g 15.5,4.0
# From MPEC 2021-W31
417P/NEOWISE,e,8.4845,121.7622,117.8227,3.304779,0.1640554,0.57268400,187.1987,06/14.0/2024,2000,g 16.5,4.0
# From MPEC 2022-TA0
418P/LINEAR,e,5.7803,277.6435,307.3669,5.093656,0.0857353,0.66372815,83.2757,06/14.0/2024,2000,g 13.0,4.0
# From MPEC 2023-UR6
419P/PANSTARRS,e,2.8006,40.4148,187.8858,3.528372,0.1487108,0.27571075,142.8784,06/14.0/2024,2000,g 12.5,4.0
# From MPEC 2024-L77
420P/Hill,e,14.4851,173.7649,156.5211,5.499968,0.0764124,0.49537677,57.7830,06/14.0/2024,2000,g 11.5,4.0
# From MPEC 2021-W31
421P/McNaught,e,10.0757,55.3314,259.8956,5.076228,0.0861772,0.67462668,106.5321,06/14.0/2024,2000,g 14.0,4.0
# From MPEC 2022-X67
422P/Christensen,e,39.5829,36.0231,304.8245,6.280803,0.0626154,0.50625780,55.3659,06/14.0/2024,2000,g 11.0,4.0
# From MPEC 2023-FK0
423P/Lemmon,e,8.3454,33.2990,80.5810,6.177154,0.0641980,0.12251964,63.9213,06/14.0/2024,2000,g  8.0,4.0
# From MPEC 2022-CN4
424P/LaSagra,e,8.6830,51.1938,312.5554,4.419660,0.1060769,0.69087131,101.4682,06/14.0/2024,2000,g 17.0,4.0
# From MPEC 2024-C04
425P/Kowalski,e,16.4200,210.0764,200.9213,6.346918,0.0616396,0.54401597,61.4509,06/14.0/2024,2000,g 12.0,4.0
# From MPEC 2024-A43
426P/PANSTARRS,e,17.7818,280.3945,118.5443,3.187428,0.1731982,0.16135447,47.9644,06/14.0/2024,2000,g 13.5,4.0
# From MPEC 2023-J29
428P/Gibbs,e,8.5053,299.3255,36.9054,3.487357,0.1513420,0.51862789,170.5546,06/14.0/2024,2000,g 15.0,4.0
# From MPEC 2024-EF7
429P/LINEAR-Hill,e,7.5161,322.0459,75.6754,3.554650,0.1470648,0.49125471,131.4269,06/14.0/2024,2000,g 15.5,4.0
# From MPEC 2022-L66
430P/Scotti,e,4.4752,54.6665,94.4239,3.104080,0.1802207,0.49989463,166.6568,06/14.0/2024,2000,g 16.5,4.0
# From MPEC 2024-EF7
431P/Scotti,e,22.3896,202.8433,199.9672,3.475979,0.1520857,0.47768304,129.4880,06/14.0/2024,2000,g 14.0,4.0
# From MPEC 2021-U31
432P/PANSTARRS,e,10.0683,239.1287,105.3241,3.037178,0.1862082,0.24123777,189.7602,06/14.0/2024,2000,g 17.0,4.0
# From MPEC 2024-D33
434P/Tenagra,e,6.3360,288.9316,128.3346,4.133930,0.1172626,0.27467158,112.6942,06/14.0/2024,2000,g 13.0,4.0
# From MPEC 2021-W31
435P/PANSTARRS,e,18.8746,98.5324,244.2450,3.020549,0.1877480,0.31793652,197.6963,06/14.0/2024,2000,g 17.0,4.0
# From MPEC 2022-X67
436P/Garradd,e,20.2006,87.1644,282.7209,5.935382,0.0681602,0.66953151,62.6144,06/14.0/2024,2000,g 14.5,4.0
# From MPEC 2023-B57
437P/Lemmon-PANSTARRS,e,3.6890,245.8415,206.9222,4.566038,0.1010171,0.25506299,67.1224,06/14.0/2024,2000,g 13.0,4.0
# From MPEC 2021-W47
438P/Christensen,e,8.2809,260.1136,59.0356,3.850978,0.1304210,0.41450436,199.8297,06/14.0/2024,2000,g 14.5,4.0
# From MPEC 2022-C56
439P/LINEAR,e,7.1136,56.4345,342.0859,3.490962,0.1511076,0.46946182,154.5178,06/14.0/2024,2000,g 13.5,4.0
# From MPEC 2022-WQ9
440P/Kobayashi,e,12.3434,328.8371,183.2858,8.576754,0.0392392,0.76057187,31.6655,06/14.0/2024,2000,g 15.5,4.0
# From MPEC 2022-X67
441P/PANSTARRS,e,2.5744,143.6010,178.8612,4.133559,0.1172784,0.19498758,306.9507,06/14.0/2024,2000,g 13.5,4.0
# From MPEC 2024-BE0
442P/McNaught,e,6.0577,31.9979,310.7278,4.962111,0.0891670,0.53268413,59.3580,06/14.0/2024,2000,g 13.5,4.0
# From MPEC 2023-SQ0
443P/PANSTARRS-Christensen,e,19.8880,108.9410,145.1099,4.125406,0.1176262,0.28328215,72.1047,06/14.0/2024,2000,g 13.5,4.0
# From MPEC 2023-VM5
444P/WISE-PANSTARRS,e,22.4109,88.6204,172.0510,3.445483,0.1541093,0.56924930,108.5671,06/14.0/2024,2000,g 17.0,4.0
# From MPEC 2024-BE0
445P/Lemmon-PANSTARRS,e,1.0886,126.5908,213.3569,4.050271,0.1209144,0.41396912,80.6802,06/14.0/2024,2000,g 15.0,4.0
# From MPEC 2022-WQ9
446P/McNaught,e,16.6161,336.3755,344.6696,4.564480,0.1010688,0.64673111,75.4707,06/14.0/2024,2000,g 16.5,4.0
# From MPEC 2022-YB4
447P/Sheppard-Tholen,e,7.4384,302.6375,97.7042,5.631545,0.0737501,0.17816350,49.0675,06/14.0/2024,2000,g 12.0,4.0
# From MPEC 2023-A50
448P/PANSTARRS,e,12.1495,161.7576,218.7670,3.635150,0.1422068,0.41860135,91.9367,06/14.0/2024,2000,g 16.0,4.0
# From MPEC 2024-DC6
449P/Leonard,e,15.4718,242.5240,176.7337,3.600060,0.1442911,0.47985691,187.1875,06/14.0/2024,2000,g 16.0,4.0
# From MPEC 2024-D33
450P/LONEOS,e,10.5659,124.7218,21.6182,7.969912,0.0438050,0.31262473,318.4412,06/14.0/2024,2000,g  6.5,4.0
# From MPEC 2023-HD1
451P/Christensen,e,26.4801,300.8880,186.7352,6.345282,0.0616634,0.55897340,34.7981,06/14.0/2024,2000,g 15.5,4.0
# From MPEC 2023-J29
452P/Sheppard-Jewitt,e,6.4214,123.6812,37.0498,7.304239,0.0499277,0.42801762,20.7404,06/14.0/2024,2000,g  9.0,4.0
# From MPEC 2023-RF3
453P/WISE-Lemmon,e,27.0673,42.8962,70.8577,5.463629,0.0771760,0.58294645,36.1836,06/14.0/2024,2000,g 14.0,4.0
# From MPEC 2023-CD7
454P/PANSTARRS,e,19.8127,54.5822,20.1117,4.209125,0.1141344,0.36159273,78.5888,06/14.0/2024,2000,g 14.0,4.0
# From MPEC 2022-Y14
455P/PANSTARRS,e,14.1375,146.1843,237.5101,3.152667,0.1760707,0.30478997,83.6027,06/14.0/2024,2000,g 17.0,4.0
# From MPEC 2023-N01
456P/PANSTARRS,e,16.9699,243.1582,233.3415,3.173272,0.1743585,0.11748045,306.5861,06/14.0/2024,2000,g 13.5,4.0
# From MPEC 2024-LE0
457P/Lemmon-PANSTARRS,e,5.2252,175.9699,104.3972,2.645980,0.2289941,0.11861787,344.5721,06/14.0/2024,2000,g 15.5,4.0
# From MPEC 2023-HD1
458P/Jahn,e,13.6255,1.5832,104.8512,3.858040,0.1300631,0.31717064,77.0737,06/14.0/2024,2000,g 17.3,4.0
# From MPEC 2024-L77
459P/Catalina,e,7.1734,256.9884,205.2049,3.239919,0.1690063,0.57775325,80.8761,06/14.0/2024,2000,g 15.5,4.0
# From MPEC 2023-G14
460P/PANSTARRS,e,18.8961,180.5150,351.9467,3.027120,0.1871369,0.66402845,204.6920,06/14.0/2024,2000,g 21.0,4.0
# From MPEC 2024-GJ3
461P/WISE,e,18.4081,194.3793,174.8321,3.143542,0.1768378,0.56999462,173.8587,06/14.0/2024,2000,g 18.5,4.0
# From MPEC 2024-BE0
462P/LONEOS-PANSTARRS,e,7.0299,322.7557,4.3463,4.874223,0.0915895,0.57818798,62.4845,06/14.0/2024,2000,g 17.0,4.0
# From MPEC 2024-GJ3
463P/NEOWISE,e,29.2891,283.2120,216.3505,2.974360,0.1921382,0.82566279,84.9914,06/14.0/2024,2000,g 18.0,4.0
# From MPEC 2023-RF3
464P/PANSTARRS,e,21.6684,309.5782,267.6232,4.686033,0.0971619,0.28046700,45.8908,06/14.0/2024,2000,g 10.5,4.0
# From MPEC 2024-JU4
465P/Hill,e,25.8675,218.0011,141.0906,6.024756,0.0666492,0.61373857,26.7602,06/14.0/2024,2000,g 12.5,4.0
# From MPEC 2024-JU4
466P/PANSTARRS,e,12.2463,119.7001,196.9697,4.052283,0.1208244,0.46834012,49.1501,06/14.0/2024,2000,g 14.0,4.0
# From MPEC 2023-T65
467P/LINEAR-Grauer,e,2.4790,43.2672,267.8430,5.830344,0.0700104,0.05515475,39.2336,06/14.0/2024,2000,g  9.0,4.0
# From MPEC 2023-XP6
468P/SidingSpring,e,50.4469,356.1237,322.5777,7.122864,0.0518468,0.44544671,10.6702,06/14.0/2024,2000,g 11.5,4.0
# From MPEC 2023-P35
469P/PANSTARRS,e,20.1740,178.9656,43.5166,4.340526,0.1089910,0.30763803,300.8636,06/14.0/2024,2000,g 13.5,4.0
# From MPEC 2024-D33
470P/PANSTARRS,e,8.8441,246.1748,151.9030,4.473976,0.1041510,0.39023906,18.6797,06/14.0/2024,2000,g 15.5,4.0
# From MPEC 2024-GJ3
471P/,e,4.7927,283.3109,94.9550,5.710938,0.0722176,0.62828551,12.7671,06/14.0/2024,2000,g 12.0,4.0
# From MPEC 2024-D33
472P/NEAT-LINEAR,e,10.8406,206.0151,218.9826,7.831649,0.0449701,0.56720210,358.5700,06/14.0/2024,2000,g 10.5,4.0
# From MPEC 2024-L77
473P/NEAT,e,56.9081,22.1843,42.9181,7.968839,0.0438139,0.82358744,4.7651,06/14.0/2024,2000,g 13.5,4.0
# From MPEC 2024-B74
474P/Hogan,e,1.0970,26.7503,11.2809,3.130685,0.1779283,0.18834233,59.4419,06/14.0/2024,2000,g 15.5,4.0
# From MPEC 2024-L77
475P/Spacewatch-LINEAR,e,14.5252,147.3755,40.3919,7.309585,0.0498729,0.44217349,0.6187,06/14.0/2024,2000,g 11.0,4.0
# From MPEC 2024-C04
476P/PANSTARRS,e,19.0082,57.0600,46.7519,4.786729,0.0941122,0.34740865,348.2622,06/14.0/2024,2000,g 12.5,4.0
# From MPEC 2024-GJ3
477P/PANSTARRS,e,8.9149,59.1589,305.9938,3.004889,0.1892175,0.41745542,32.2198,06/14.0/2024,2000,g 14.5,4.0
# From MPEC 2024-L77
478P/ATLAS,e,12.5251,127.2714,13.1835,3.645922,0.1415771,0.34348341,6.0904,06/14.0/2024,2000,g 13.5,4.0
# From MPEC 2024-LE0
479P/Elenin,e,15.3980,295.8324,263.5257,5.623859,0.0739014,0.77885067,2.9380,06/14.0/2024,2000,g 15.0,4.0
# From MPEC 2024-GJ3
480P/PANSTARRS,e,13.7175,229.9766,214.2792,4.608124,0.0996364,0.24638235,41.6408,06/14.0/2024,2000,g 12.0,4.0
# From MPEC 2024-L77
481P/Lemmon-PANSTARRS,e,6.0827,93.5541,356.6981,4.678649,0.0973920,0.34342889,33.2196,06/14.0/2024,2000,g 13.5,4.0
# From MPEC 2024-JU4
